IRIDIUM 126             
1 42809U 17039G   23360.57655859  .00000408  00000+0  13861-3 0  9990
2 42809  86.3970  11.2675 0002514  95.3444 264.8038 14.34220305340430
IRIDIUM 124             
1 42810U 17039H   23360.94884371  .00000702  00000+0  20260-3 0  9994
2 42810  86.4491 307.8659 0002160  81.0231 279.1215 14.43290730344833
IRIDIUM 128             
1 42811U 17039J   23360.63706586  .00000486  00000+0  16643-3 0  9991
2 42811  86.3962  42.7591 0002277  94.9564 265.1892 14.34219245340471
IRIDIUM 121             
1 42812U 17039K   23360.94442893  .00000439  00000+0  14959-3 0  9990
2 42812  86.3969  11.1357 0002249  95.1631 264.9822 14.34219577340362
IRIDIUM 133             
1 42955U 17061A   23360.66877904  .00000254  00000+0  83724-4 0  9999
2 42955  86.3966  42.8413 0002362  95.7623 264.3842 14.34215966325271
IRIDIUM 100             
1 42956U 17061B   23360.66243638  .00000401  00000+0  13624-3 0  9996
2 42956  86.3962  42.7840 0002340  97.7128 262.4334 14.34217977325278
IRIDIUM 122             
1 42957U 17061C   23360.56095449  .00000450  00000+0  15347-3 0  9999
2 42957  86.3964  42.8246 0002374  92.3612 267.7856 14.34219083325264
IRIDIUM 129             
1 42958U 17061D   23360.65609638  .00000357  00000+0  12027-3 0  9999
2 42958  86.3964  42.8419 0002373  95.4548 264.6919 14.34217131325299
